[{"OBJECT_NAME":"STARLINK-31291","OBJECT_ID":"2024-041Y","EPOCH":"2026-03-09T01:05:04.867872","MEAN_MOTION":15.27575207,"ECCENTRICITY":0.00010879,"INCLINATION":43.0032,"RA_OF_ASC_NODE":314.2775,"ARG_OF_PERICENTER":284.5172,"MEAN_ANOMALY":75.5559,"EPHEMERIS_TYPE":0,"CLASSIFICATION_TYPE":"U","NORAD_CAT_ID":59096,"ELEMENT_SET_NO":999,"REV_AT_EPOCH":11417,"BSTAR":5.7830231e-5,"MEAN_MOTION_DOT":1.329e-5,"MEAN_MOTION_DDOT":0},{"OBJECT_NAME":"SL-3 R\/B","OBJECT_ID":"1982-013B","EPOCH":"2026-03-09T21:53:00.854016","MEAN_MOTION":15.22021316,"ECCENTRICITY":0.00226549,"INCLINATION":81.1762,"RA_OF_ASC_NODE":160.5103,"ARG_OF_PERICENTER":176.767,"MEAN_ANOMALY":183.3713,"EPHEMERIS_TYPE":0,"CLASSIFICATION_TYPE":"U","NORAD_CAT_ID":13068,"ELEMENT_SET_NO":999,"REV_AT_EPOCH":40438,"BSTAR":0.00024250009,"MEAN_MOTION_DOT":5.603e-5,"MEAN_MOTION_DDOT":0}]
